NORAD_CAT_ID,OBJECT_NAME,OBJECT_TYPE,EPOCH,MEAN_MOTION,ECCENTRICITY,INCLINATION,RA_OF_ASC_NODE,ARG_OF_PERICENTER,MEAN_ANOMALY,BSTAR,MEAN_MOTION_DOT,MEAN_MOTION_DDOT,TLE_LINE0,TLE_LINE1,TLE_LINE2,SEMIMAJOR_AXIS,PERIOD,APOGEE,PERIGEE,DECAYED
54790.0,STARLINK-5445,PAYLOAD,2023-06-18 07:22:58,15.08836235,9.96e-05,53.2159,177.3536,85.4126,274.698,-6.0357e-05,-1.248e-05,0.0,0 STARLINK-5445,1 54790U 22175AJ  23169.30762388 -.00001248  00000-0 -60357-4 0  9992,2 54790  53.2159 177.3536 0000996  85.4126 274.6980 15.08836235 27707,6917.892,95.438,540.446,539.068,0.0
54790.0,STARLINK-5445,PAYLOAD,2023-06-19 07:13:45,15.0883697,0.0001033,53.2161,172.8937,85.599,274.512,2.218e-05,6.5e-07,0.0,0 STARLINK-5445,1 54790U 22175AJ  23170.30122239  .00000065  00000-0  22180-4 0  9995,2 54790  53.2161 172.8937 0001033  85.5990 274.5120 15.08836970 30017,6917.89,95.438,540.469,539.04,0.0
54790.0,STARLINK-5445,PAYLOAD,2023-06-19 16:46:04,15.0883474,0.0001042,53.2161,171.1099,84.4811,275.63,2.3269e-06,-2.51e-06,0.0,0 STARLINK-5445,1 54790U 22175AJ  23170.69866544 -.00000251  00000-0  23269-5 0  9999,2 54790  53.2161 171.1099 0001042  84.4811 275.6300 15.08834740 27918,6917.896,95.438,540.482,539.041,0.0
54790.0,STARLINK-5445,PAYLOAD,2023-06-20 07:04:33,15.08833547,0.0001053,53.2162,168.4341,85.7447,274.3666,3.2517e-05,2.3e-06,0.0,0 STARLINK-5445,1 54790U 22175AJ  23171.29482740  .00000230  00000-0  32517-4 0  9999,2 54790  53.2162 168.4341 0001053  85.7447 274.3666 15.08833547 30165,6917.9,95.438,540.494,539.037,0.0
54790.0,STARLINK-5445,PAYLOAD,2023-06-20 18:12:15,15.0883481,0.0001056,53.2162,166.3526,84.8609,275.2504,1.8236e-05,2e-08,0.0,0 STARLINK-5445,1 54790U 22175AJ  23171.75850848  .00000002  00000-0  18236-4 0  9997,2 54790  53.2162 166.3526 0001056  84.8609 275.2504 15.08834810 30233,6917.896,95.438,540.492,539.031,0.0
54790.0,STARLINK-5445,PAYLOAD,2023-06-20 22:58:24,15.08835849,0.0001062,53.2162,165.4605,84.5372,275.5741,-3.792e-07,-2.94e-06,0.0,0 STARLINK-5445,1 54790U 22175AJ  23171.95722910 -.00000294  00000-0 -37920-6 0  9995,2 54790  53.2162 165.4605 0001062  84.5372 275.5741 15.08835849 28104,6917.893,95.438,540.493,539.023,0.0
54790.0,STARLINK-5445,PAYLOAD,2023-06-21 06:55:20,15.08837582,0.0001075,53.2161,163.9736,84.9618,275.1497,1.3076e-05,-8e-07,0.0,0 STARLINK-5445,1 54790U 22175AJ  23172.28842805 -.00000080  00000-0  13076-4 0  9994,2 54790  53.2161 163.9736 0001075  84.9618 275.1497 15.08837582 30318,6917.888,95.438,540.496,539.009,0.0
54790.0,STARLINK-5445,PAYLOAD,2023-06-21 16:27:39,15.08836948,0.0001073,53.2161,162.1895,88.5355,271.576,1.3532e-05,-7.2e-07,0.0,0 STARLINK-5445,1 54790U 22175AJ  23172.68586852 -.00000072  00000-0  13532-4 0  9993,2 54790  53.2161 162.1895 0001073  88.5355 271.5760 15.08836948 30375,6917.89,95.438,540.497,539.012,0.0
54790.0,STARLINK-5445,PAYLOAD,2023-06-22 06:46:07,15.08839805,0.0001095,53.2161,159.5127,88.8448,271.267,3.5624e-05,2.79e-06,0.0,0 STARLINK-5445,1 54790U 22175AJ  23173.28202658  .00000279  00000-0  35624-4 0  9993,2 54790  53.2161 159.5127 0001095  88.8448 271.2670 15.08839805 28305,6917.881,95.438,540.503,538.988,0.0
54790.0,STARLINK-5445,PAYLOAD,2023-06-23 16:09:13,15.08839734,0.0001136,53.2162,153.2674,86.8152,273.297,1.421e-05,-6.2e-07,0.0,0 STARLINK-5445,1 54790U 22175AJ  23174.67306818 -.00000062  00000-0  14210-4 0  9999,2 54790  53.2162 153.2674 0001136  86.8152 273.2970 15.08839734 28519,6917.881,95.438,540.532,538.96,0.0
54790.0,STARLINK-5445,PAYLOAD,2023-06-25 03:07:42,15.08839064,0.0001189,53.2165,146.726,86.4764,273.6364,2.0657e-05,4.1e-07,0.0,0 STARLINK-5445,1 54790U 22175AJ  23176.13034797  .00000041  00000-0  20657-4 0  9994,2 54790  53.2165 146.7260 0001189  86.4764 273.6364 15.08839064 28734,6917.883,95.438,540.571,538.926,0.0
54790.0,STARLINK-5445,PAYLOAD,2023-06-26 02:58:29,15.08833402,0.0001256,53.2167,142.2654,95.1051,265.0084,-3.5935e-05,-8.6e-06,0.0,0 STARLINK-5445,1 54790U 22175AJ  23177.12395378 -.00000860  00000-0 -35935-4 0  9995,2 54790  53.2167 142.2654 0001256  95.1051 265.0084 15.08833402 28885,6917.901,95.438,540.634,538.897,0.0
54790.0,STARLINK-5445,PAYLOAD,2023-06-26 07:44:38,15.08855042,0.0001104,53.2174,141.3753,89.3151,270.7968,-0.00022344,-3.844e-05,0.0,0 STARLINK-5445,1 54790U 22175AJ  23177.32266619 -.00003844  00000-0 -22344-3 0  9996,2 54790  53.2174 141.3753 0001104  89.3151 270.7968 15.08855042 28913,6917.834,95.437,540.463,538.936,0.0
54790.0,STARLINK-5445,PAYLOAD,2023-06-26 14:06:11,15.08833615,0.0001269,53.2175,140.183,85.9704,274.1433,-6.2689e-05,-1.285e-05,0.0,0 STARLINK-5445,1 54790U 22175AJ  23177.58763563 -.00001285  00000-0 -62689-4 0  9998,2 54790  53.2175 140.1830 0001269  85.9704 274.1433 15.08833615 28956,6917.9,95.438,540.643,538.887,0.0
54790.0,STARLINK-5445,PAYLOAD,2023-06-27 04:24:39,15.08837535,0.0001187,53.2166,137.5082,89.5637,270.5492,-5.6528e-06,-3.78e-06,0.0,0 STARLINK-5445,1 54790U 22175AJ  23178.18379303 -.00000378  00000-0 -56528-5 0  9998,2 54790  53.2166 137.5082 0001187  89.5637 270.5492 15.08837535 29040,6917.888,95.438,540.574,538.932,0.0
54790.0,STARLINK-5445,PAYLOAD,2023-06-28 07:26:12,15.08839808,0.0001195,53.2175,132.4547,86.6493,273.4635,5.8934e-05,6.5e-06,0.0,0 STARLINK-5445,1 54790U 22175AJ  23179.30987246  .00000650  00000-0  58934-4 0  9997,2 54790  53.2175 132.4547 0001195  86.6493 273.4635 15.08839808 29212,6917.881,95.438,540.573,538.919,0.0
54790.0,STARLINK-5445,PAYLOAD,2023-06-29 02:30:51,15.08833252,0.0001231,53.2179,128.8874,99.048,261.0651,-6.2262e-06,-3.87e-06,0.0,0 STARLINK-5445,1 54790U 22175AJ  23180.10476096 -.00000387  00000-0 -62262-5 0  9992,2 54790  53.2179 128.8874 0001231  99.0480 261.0651 15.08833252 29334,6917.901,95.438,540.618,538.914,0.0
54790.0,STARLINK-5445,PAYLOAD,2023-07-01 02:12:25,15.08833264,0.0001248,53.2177,119.9638,86.7703,273.3432,-2.7085e-05,-7.19e-06,0.0,0 STARLINK-5445,1 54790U 22175AJ  23182.09196540 -.00000719  00000-0 -27085-4 0  9997,2 54790  53.2177 119.9638 0001248  86.7703 273.3432 15.08833264 29639,6917.901,95.438,540.629,538.903,0.0
54790.0,STARLINK-5445,PAYLOAD,2023-07-01 13:20:07,15.08837907,0.0001293,53.2177,117.8823,86.3256,273.7884,1.7772e-05,-5e-08,0.0,0 STARLINK-5445,1 54790U 22175AJ  23182.55564179 -.00000005  00000-0  17772-4 0  9994,2 54790  53.2177 117.8823 0001293  86.3256 273.7884 15.08837907 29702,6917.887,95.438,540.646,538.857,0.0
54790.0,STARLINK-5445,PAYLOAD,2023-07-02 02:03:11,15.08846945,0.0001316,53.2174,115.5033,87.0853,273.029,4.0773e-05,3.61e-06,0.0,0 STARLINK-5445,1 54790U 22175AJ  23183.08555486  .00000361  00000-0  40773-4 0  9995,2 54790  53.2174 115.5033 0001316  87.0853 273.0290 15.08846945 29788,6917.859,95.437,540.635,538.814,0.0
54790.0,STARLINK-5445,PAYLOAD,2023-07-03 01:53:59,15.08839772,0.0001197,53.2174,111.0432,88.4433,271.6697,4.5895e-05,4.43e-06,0.0,0 STARLINK-5445,1 54790U 22175AJ  23184.07915878  .00000443  00000-0  45895-4 0  9991,2 54790  53.2174 111.0432 0001197  88.4433 271.6697 15.08839772 29930,6917.881,95.438,540.574,538.918,0.0
54790.0,STARLINK-5445,PAYLOAD,2023-07-04 04:55:32,15.08844045,0.0001178,53.2177,105.9882,89.9922,270.1205,-2.4867e-05,-6.84e-06,0.0,0 STARLINK-5445,1 54790U 22175AJ  23185.20523855 -.00000684  00000-0 -24867-4 0  9992,2 54790  53.2177 105.9882 0001178  89.9922 270.1205 15.08844045 30101,6917.868,95.437,540.548,538.918,0.0
54790.0,STARLINK-5445,PAYLOAD,2023-07-05 01:35:33,15.08836333,0.0001146,53.2184,102.1238,95.0851,265.0272,-8.4867e-06,-4.23e-06,0.0,0 STARLINK-5445,1 54790U 22175AJ  23186.06636444 -.00000423  00000-0 -84867-5 0  9994,2 54790  53.2184 102.1238 0001146  95.0851 265.0272 15.08836333 30239,6917.892,95.438,540.549,538.964,0.0
54790.0,STARLINK-5445,PAYLOAD,2023-07-06 03:01:44,15.08840536,0.0001076,53.2175,97.3651,94.6301,265.4814,7.1666e-06,-1.74e-06,0.0,0 STARLINK-5445,1 54790U 22175AJ  23187.12620462 -.00000174  00000-0  71666-5 0  9990,2 54790  53.2175  97.3651 0001076  94.6301 265.4814 15.08840536 30393,6917.879,95.438,540.488,538.999,0.0
54790.0,STARLINK-5445,PAYLOAD,2023-07-07 17:10:59,15.08834523,0.0001494,53.2164,90.2274,90.1808,269.9355,4.9876e-06,-2.09e-06,0.0,0 STARLINK-5445,1 54790U 22175AJ  23188.71597019 -.00000209  00000-0  49876-5 0  9994,2 54790  53.2164  90.2274 0001494  90.1808 269.9355 15.08834523 30636,6917.897,95.438,540.796,538.729,0.0
54790.0,STARLINK-5445,PAYLOAD,2023-07-08 02:43:18,15.08843528,0.0001212,53.2178,88.4445,83.8073,276.3057,2.0189e-05,3.3e-07,0.0,0 STARLINK-5445,1 54790U 22175AJ  23189.11340447  .00000033  00000-0  20189-4 0  9999,2 54790  53.2178  88.4445 0001212  83.8073 276.3057 15.08843528 30693,6917.87,95.437,540.573,538.896,0.0
54790.0,STARLINK-5445,PAYLOAD,2023-07-09 10:31:01,15.08837199,0.0001185,53.2177,82.4967,89.5445,270.5683,3.9651e-05,3.43e-06,0.0,0 STARLINK-5445,1 54790U 22175AJ  23190.43820657  .00000343  00000-0  39651-4 0  9990,2 54790  53.2177  82.4967 0001185  89.5445 270.5683 15.08837199 30890,6917.889,95.438,540.574,538.934,0.0
54790.0,STARLINK-5445,PAYLOAD,2023-07-09 23:14:05,15.08843598,0.0001153,53.2179,80.1172,92.3831,267.7293,4.4276e-05,4.17e-06,0.0,0 STARLINK-5445,1 54790U 22175AJ  23190.96812276  .00000417  00000-0  44276-4 0  9997,2 54790  53.2179  80.1172 0001153  92.3831 267.7293 15.08843598 30975,6917.869,95.437,540.532,538.937,0.0
54790.0,STARLINK-5445,PAYLOAD,2023-07-11 02:15:39,15.08842228,0.0001088,53.2169,75.0643,85.3133,274.7983,1.8021e-05,-1e-08,0.0,0 STARLINK-5445,1 54790U 22175AJ  23192.09420521 -.00000001  00000-0  18021-4 0  9990,2 54790  53.2169  75.0643 0001088  85.3133 274.7983 15.08842228 31147,6917.874,95.437,540.491,538.986,0.0
54790.0,STARLINK-5445,PAYLOAD,2023-07-11 22:55:40,15.08836003,0.000113,53.2173,71.1967,90.9602,269.152,-3.3709e-05,-8.24e-06,0.0,0 STARLINK-5445,1 54790U 22175AJ  23192.95533165 -.00000824  00000-0 -33709-4 0  9998,2 54790  53.2173  71.1967 0001130  90.9602 269.1520 15.08836003 31272,6917.893,95.438,540.539,538.976,0.0
